IRIDIUM 39              
1 25042U 97069D   26002.79353686  .00001500  00000+0  38532-3 0  9990
2 25042  86.3933 125.6035 0017669   6.2742 353.8680 14.49545591477872
IRIDIUM 38              
1 25043U 97069E   26002.77905870  .00001024  00000+0  33004-3 0  9997
2 25043  86.3990 149.2617 0003196 127.9624 232.1863 14.38340590474648
IRIDIUM 42              
1 25077U 97077A   26002.82232469  .00000958  00000+0  31980-3 0  9992
2 25077  86.3995 155.6578 0002142 114.2160 245.9261 14.36556547469851
IRIDIUM 44              
1 25078U 97077B   26002.79323103  .00000882  00000+0  27139-3 0  9992
2 25078  86.3988 137.0720 0003914  92.6850 267.4797 14.40454759472438
IRIDIUM 45              
1 25104U 97082A   26002.83891379  .00046230  00000+0  12656-2 0  9992
2 25104  86.3551 310.2699 0092130 299.9183  59.2939 15.32878521482506
IRIDIUM 24              
1 25105U 97082B   26002.50691475  .00001054  00000+0  31289-3 0  9991
2 25105  86.3911 355.7386 0012822 131.8171 228.4127 14.42353666471948
IRIDIUM 51              
1 25262U 98018A   26002.82018593  .00168057  00000+0  14663-2 0  9997
2 25262  86.3728 315.3822 0046736 182.9444 177.1558 15.67023997477949
IRIDIUM 57              
1 25273U 98019B   26002.67585940  .00000653  00000+0  21788-3 0  9992
2 25273  86.3938  61.6068 0002274  96.3372 263.8084 14.36069934453413
